ONEWEB-0385             
1 49311U 21090AJ  23346.34437777  .00000127  00000+0  28033-3 0  9998
2 49311  87.9199  97.1547 0001589  94.0426 266.0889 13.20868721109966
ONEWEB-0386             
1 49312U 21090AK  23345.83133498  .00000064  00000+0  12590-3 0  9996
2 49312  87.9194  97.2641 0001510  97.5574 262.5731 13.20774432108594
ONEWEB-0387             
1 49313U 21090AL  23346.34605466  .00000130  00000+0  28741-3 0  9992
2 49313  87.9199  97.2115 0001885  95.7859 264.3489 13.20968579109977
ONEWEB-0388             
1 49314U 21090AM  23345.88738417  .00000037  00000+0  60855-4 0  9993
2 49314  87.9183 127.7602 0001428  89.9802 270.1494 13.19723300106581
ONEWEB-0389             
1 50469U 21132A   23346.12973593  .00000021  00000+0  20016-4 0  9995
2 50469  87.9215 188.3764 0001954  74.2754 285.8593 13.17651786 98476
ONEWEB-0390             
1 50470U 21132B   23346.13183992 -.00000182  00000+0 -50209-3 0  9990
2 50470  87.9216 188.3836 0001965  94.4502 265.6854 13.17648799 98472
ONEWEB-0391             
1 50471U 21132C   23346.13394843  .00000019  00000+0  16975-4 0  9990
2 50471  87.9217 188.3536 0001729  79.0878 281.0448 13.17649301 98475
ONEWEB-0392             
1 50472U 21132D   23346.08755206  .00000064  00000+0  13208-3 0  9994
2 50472  87.9201 188.3905 0001852  82.1948 277.9394 13.17647152 98509
